      2.10          N: GNSS NAV DATA                        RINEX VERSION / TYPE
fic2rin                                 11/21/2021 00:17:45 PGM / RUN BY / DATE
                                                            END OF HEADER
17 21 11 20  5 59 44.0 5.362029187381e-04 5.343281372916e-12 0.000000000000e+00
    3.300000000000e+01-3.196875000000e+01 4.406969282245e-09-3.009399854703e+00
   -1.536682248116e-06 1.377415144816e-02-6.519258022308e-08 5.153704759598e+03
    5.399840000000e+05 2.309679985046e-07-1.283242251093e+00 7.636845111847e-08
    9.804000377797e-01 3.898125000000e+02-1.535867762029e+00-8.112123616796e-09
   -4.643050544549e-11 1.000000000000e+00 2.184000000000e+03 0.000000000000e+00
    2.400000000000e+00 0.000000000000e+00-1.117587089539e-08 3.300000000000e+01
    5.328000000000e+05 4.000000000000e+00
 3 21 11 20  6  0  0.0-1.812214031816e-05-1.000444171950e-11 0.000000000000e+00
    1.300000000000e+01 1.468750000000e+00 4.260891768959e-09-1.491249652991e-01
    3.352761268616e-08 3.883396857418e-03 9.726732969284e-06 5.153732048035e+03
    5.400000000000e+05-1.490116119385e-08 7.495801824748e-01 8.568167686462e-08
    9.714587673284e-01 1.969062500000e+02 1.001083744962e+00-7.791753129222e-09
    5.143071372424e-10 1.000000000000e+00 2.184000000000e+03 0.000000000000e+00
    2.400000000000e+00 0.000000000000e+00 1.862645149231e-09 1.300000000000e+01
    5.328000000000e+05 4.000000000000e+00
 2 21 11 20  6  0  0.0-6.427122280002e-04-1.477928890381e-12 0.000000000000e+00
    9.800000000000e+01-1.425312500000e+02 4.250891352402e-09 1.225519400899e+00
   -7.774680852890e-06 2.050929225516e-02 7.398426532745e-06 5.153806861877e+03
    5.400000000000e+05-1.341104507446e-07-3.731231999532e-01-4.936009645462e-07
    9.648379380357e-01 2.457187500000e+02-1.479071832822e+00-8.115338036403e-09
   -2.057228548969e-10 1.000000000000e+00 2.184000000000e+03 0.000000000000e+00
    2.400000000000e+00 0.000000000000e+00-1.769512891769e-08 9.800000000000e+01
    5.328000000000e+05 4.000000000000e+00
 1 21 11 20  6  0  0.0 5.059442482889e-04-1.045918907039e-11 0.000000000000e+00
    5.900000000000e+01-1.228125000000e+02 3.865160999470e-09 1.023591532513e+00
   -6.286427378654e-06 1.111368380953e-02 8.789822459221e-06 5.153679140091e+03
    5.400000000000e+05-9.126961231232e-08-2.857057094296e-01 1.378357410431e-07
    9.864548947888e-01 2.252187500000e+02 8.859930479782e-01-7.849255524427e-09
   -2.632252501025e-10 1.000000000000e+00 2.184000000000e+03 0.000000000000e+00
    2.400000000000e+00 0.000000000000e+00 5.122274160385e-09 5.900000000000e+01
    5.328000000000e+05 4.000000000000e+00
13 21 11 20  6  0  0.0 2.172710373998e-04 5.684341886081e-12 0.000000000000e+00
    8.000000000000e+00-9.968750000000e+00 4.617335187687e-09 2.699263395795e+00
   -5.532056093216e-07 5.706084659323e-03 5.288049578667e-06 5.153669227600e+03
    5.400000000000e+05 5.587935447693e-08 1.930205718667e+00-4.842877388000e-08
    9.679141826537e-01 2.810312500000e+02 9.780432255518e-01-7.912115285646e-09
   -1.810789712374e-10 1.000000000000e+00 2.184000000000e+03 0.000000000000e+00
    2.400000000000e+00 0.000000000000e+00-1.117587089539e-08 8.000000000000e+00
    5.328000000000e+05 4.000000000000e+00
 7 21 11 20  6  0  0.0 2.804757095873e-04 5.229594535194e-12 0.000000000000e+00
    4.000000000000e+00 1.834375000000e+01 4.577690679191e-09 3.812886556887e-01
    1.082196831703e-06 1.532301539555e-02 1.025944948196e-05 5.153723684311e+03
    5.400000000000e+05-1.378357410431e-07 2.850836436003e+00 2.458691596985e-07
    9.514920611664e-01 1.797500000000e+02-2.301622647045e+00-8.073907739237e-09
   -5.568089076117e-10 1.000000000000e+00 2.184000000000e+03 0.000000000000e+00
    2.400000000000e+00 0.000000000000e+00-1.117587089539e-08 4.000000000000e+00
    5.328000000000e+05 4.000000000000e+00
10 21 11 20  6  0  0.0-2.501402050257e-04-8.526512829121e-12 0.000000000000e+00
    1.900000000000e+01-3.187500000000e+00 4.191603168525e-09-9.420778746506e-01
   -2.775341272354e-07 7.204826455563e-03 9.488314390182e-06 5.153675746918e+03
    5.400000000000e+05 1.899898052216e-07 7.467648097975e-01 2.235174179077e-08
    9.713061396223e-01 2.035312500000e+02-2.574601658219e+00-7.726036106130e-09
    4.003738200338e-10 1.000000000000e+00 2.184000000000e+03 0.000000000000e+00
    2.400000000000e+00 0.000000000000e+00 2.328306436539e-09 1.900000000000e+01
    5.328000000000e+05 4.000000000000e+00
 8 21 11 20  6  0  0.0-4.487810656428e-05-1.477928890381e-12 0.000000000000e+00
    1.500000000000e+01-1.340625000000e+01 4.726625454351e-09-2.926271594638e+00
   -5.904585123062e-07 6.775301997550e-03 5.979090929031e-07 5.153679172516e+03
    5.400000000000e+05-9.313225746155e-08-1.363892463984e+00-5.774199962616e-08
    9.653830271638e-01 3.729375000000e+02 5.504616068783e-02-8.306774581933e-09
    2.178662178596e-11 1.000000000000e+00 2.184000000000e+03 0.000000000000e+00
    2.400000000000e+00 0.000000000000e+00 5.122274160385e-09 1.500000000000e+01
    5.328000000000e+05 4.000000000000e+00
 5 21 11 20  6  0  0.0-6.167171522975e-05-1.250555214938e-12 0.000000000000e+00
    9.000000000000e+01-7.218750000000e+00 4.460185784641e-09-2.632614935688e+00
   -3.762543201447e-07 5.996279767714e-03 9.676441550255e-06 5.153618133545e+03
    5.400000000000e+05 1.247972249985e-07 7.103553286707e-01-2.793967723846e-08
    9.584759486905e-01 1.916875000000e+02 1.016624806481e+00-7.756037355802e-09
    5.178787145843e-10 1.000000000000e+00 2.184000000000e+03 0.000000000000e+00
    3.400000000000e+00 0.000000000000e+00-1.117587089539e-08 9.000000000000e+01
    5.328000000000e+05 4.000000000000e+00
 6 21 11 20  6  0  0.0 1.222435384989e-04 9.322320693173e-12 0.000000000000e+00
    1.170000000000e+02-1.351875000000e+02 3.740870107970e-09 1.419969872199e+00
   -7.068738341331e-06 2.403371501714e-03 8.521601557732e-06 5.153623090744e+03
    5.400000000000e+05 5.774199962616e-08-2.939611156090e-01-2.235174179077e-08
    9.858555489550e-01 2.265312500000e+02-1.040442815648e+00-7.649604351012e-09
   -2.232235838726e-10 1.000000000000e+00 2.184000000000e+03 0.000000000000e+00
    2.400000000000e+00 0.000000000000e+00 4.190951585770e-09 1.170000000000e+02
    5.328000000000e+05 4.000000000000e+00
29 21 11 20  6  0  0.0-4.430436529219e-04-5.115907697473e-12 0.000000000000e+00
    4.300000000000e+01-2.412500000000e+01 4.402326231701e-09-2.994968674021e+00
   -1.199543476105e-06 1.832717563957e-03 8.102506399155e-07 5.153550987244e+03
    5.400000000000e+05 7.450580596924e-09-1.270412703846e+00 5.401670932770e-08
    9.823650644538e-01 3.768750000000e+02 2.382559665025e+00-8.207127574092e-09
   -1.928651764659e-11 1.000000000000e+00 2.184000000000e+03 0.000000000000e+00
    2.400000000000e+00 0.000000000000e+00-1.024454832077e-08 4.300000000000e+01
    5.328000000000e+05 4.000000000000e+00
31 21 11 20  6  0  0.0-1.510428264737e-04-1.932676241267e-12 0.000000000000e+00
    8.600000000000e+01 1.728125000000e+01 4.423755695753e-09-6.676665218477e-02
    1.046806573868e-06 1.038518722635e-02 9.860843420029e-06 5.153649564743e+03
    5.400000000000e+05 1.229345798492e-07 2.868574327955e+00 8.568167686462e-08
    9.557699861934e-01 1.854687500000e+02 3.361140262812e-01-8.001404719195e-09
   -4.132314984649e-10 1.000000000000e+00 2.184000000000e+03 0.000000000000e+00
    2.400000000000e+00 0.000000000000e+00-1.303851604462e-08 8.600000000000e+01
    5.328000000000e+05 4.000000000000e+00
16 21 11 20  6  0  0.0-4.271576181054e-04-6.480149750132e-12 0.000000000000e+00
    7.800000000000e+01 1.246562500000e+02 4.194817588133e-09-2.184545308772e+00
    6.135553121567e-06 1.234320306685e-02 5.649402737617e-06 5.153563020706e+03
    5.400000000000e+05 1.005828380585e-07-2.302118393409e+00-1.192092895508e-07
    9.715904943240e-01 2.759062500000e+02 6.843218046814e-01-7.812468277805e-09
    4.039453973758e-10 1.000000000000e+00 2.184000000000e+03 0.000000000000e+00
    2.400000000000e+00 0.000000000000e+00-1.024454832077e-08 7.800000000000e+01
    5.328000000000e+05 4.000000000000e+00
 9 21 11 20  6  0  0.0-3.615682944655e-04 3.410605131648e-13 0.000000000000e+00
    4.200000000000e+01-4.437500000000e+00 5.042352891380e-09-2.611576792713e+00
   -1.955777406693e-07 2.352422452532e-03 4.908069968224e-06 5.153660720825e+03
    5.400000000000e+05 2.980232238770e-08 1.778684930967e+00-1.862645149231e-09
    9.532829069623e-01 2.823437500000e+02 1.830253158991e+00-8.158554122241e-09
   -1.064330047904e-10 1.000000000000e+00 2.184000000000e+03 0.000000000000e+00
    2.400000000000e+00 0.000000000000e+00 1.396983861923e-09 4.200000000000e+01
    5.328000000000e+05 4.000000000000e+00
32 21 11 20  6  0  0.0-2.426421269774e-05-4.888534022029e-12 0.000000000000e+00
    9.300000000000e+01-5.593750000000e+00 4.872345809903e-09-2.307146477957e+00
   -1.862645149231e-07 5.207199836150e-03 4.926696419716e-06 5.153731676102e+03
    5.400000000000e+05 1.862645149231e-08 1.789500135109e+00-6.332993507385e-08
    9.571792751588e-01 2.833750000000e+02-2.388282691252e+00-8.054978379324e-09
   -2.357241045694e-11 1.000000000000e+00 2.184000000000e+03 0.000000000000e+00
    3.400000000000e+00 0.000000000000e+00 4.656612873077e-10 9.300000000000e+01
    5.328000000000e+05 4.000000000000e+00
27 21 11 20  6  0  0.0-2.213562838733e-04-4.661160346586e-12 0.000000000000e+00
    5.900000000000e+01-1.884375000000e+01 4.482329564161e-09-3.039913398538e+00
   -1.044943928719e-06 9.696678491309e-03 6.537884473801e-07 5.153644624710e+03
    5.400000000000e+05-4.470348358154e-08-1.345168224387e+00-1.713633537292e-07
    9.740422089734e-01 3.755625000000e+02 6.279932280615e-01-8.149625178886e-09
   -3.571577341961e-12 1.000000000000e+00 2.184000000000e+03 0.000000000000e+00
    2.400000000000e+00 0.000000000000e+00 1.862645149231e-09 5.900000000000e+01
    5.328000000000e+05 4.000000000000e+00
